NORAD_CAT_ID,OBJECT_NAME,OBJECT_TYPE,EPOCH,MEAN_MOTION,ECCENTRICITY,INCLINATION,RA_OF_ASC_NODE,ARG_OF_PERICENTER,MEAN_ANOMALY,BSTAR,MEAN_MOTION_DOT,MEAN_MOTION_DDOT,TLE_LINE0,TLE_LINE1,TLE_LINE2,SEMIMAJOR_AXIS,PERIOD,APOGEE,PERIGEE,DECAYED
54760.0,STARLINK-5220,PAYLOAD,2023-04-22 15:31:50,15.08844495,0.0001253,53.2178,87.1155,91.5662,268.5473,6.6477e-05,7.7e-06,0.0,0 STARLINK-5220,1 54760U 22175C   23112.64711219  .00000770  00000-0  66477-4 0  9997,2 54760  53.2178  87.1155 0001253  91.5662 268.5473 15.08844495 21092,6917.867,95.437,540.598,538.865,0.0
54760.0,STARLINK-5220,PAYLOAD,2023-04-23 07:25:42,15.08813401,0.0001344,53.2178,84.1419,100.6096,259.5047,0.00058007,8.949e-05,0.0,0 STARLINK-5220,1 54760U 22175C   23113.30952158  .00008949  00000-0  58007-3 0  9995,2 54760  53.2178  84.1419 0001344 100.6096 259.5047 15.08813401 19037,6917.962,95.439,540.756,538.897,0.0
54760.0,STARLINK-5220,PAYLOAD,2023-04-24 04:05:42,15.08844563,0.0001361,53.2183,80.2758,95.7564,264.3583,0.00024795,3.661e-05,0.0,0 STARLINK-5220,1 54760U 22175C   23114.17063250  .00003661  00000-0  24795-3 0  9990,2 54760  53.2183  80.2758 0001361  95.7564 264.3583 15.08844563 19165,6917.866,95.437,540.673,538.79,0.0
54760.0,STARLINK-5220,PAYLOAD,2023-04-24 07:16:28,15.08857311,0.0001418,53.2178,79.6807,92.3046,267.8108,0.00014113,1.96e-05,0.0,0 STARLINK-5220,1 54760U 22175C   23114.30310392  .00001960  00000-0  14113-3 0  9990,2 54760  53.2178  79.6807 0001418  92.3046 267.8108 15.08857311 19185,6917.827,95.436,540.673,538.712,0.0
54760.0,STARLINK-5220,PAYLOAD,2023-04-25 03:56:28,15.08852691,0.0001401,53.218,75.8152,97.3226,262.7925,0.00015558,2.19e-05,0.0,0 STARLINK-5220,1 54760U 22175C   23115.16422287  .00002190  00000-0  15558-3 0  9992,2 54760  53.2180  75.8152 0001401  97.3226 262.7925 15.08852691 19318,6917.842,95.437,540.676,538.737,0.0
54760.0,STARLINK-5220,PAYLOAD,2023-04-25 07:07:15,15.08853466,0.0001408,53.2181,75.2204,97.9007,262.2145,0.00015857,2.237e-05,0.0,0 STARLINK-5220,1 54760U 22175C   23115.29670146  .00002237  00000-0  15857-3 0  9999,2 54760  53.2181  75.2204 0001408  97.9007 262.2145 15.08853466 21493,6917.839,95.437,540.678,538.73,0.0
54760.0,STARLINK-5220,PAYLOAD,2023-04-26 06:58:04,15.08820362,0.0001122,53.2183,70.7616,93.0376,267.0745,-0.00015867,-2.811e-05,0.0,0 STARLINK-5220,1 54760U 22175C   23116.29033500 -.00002811  00000-0 -15867-3 0  9998,2 54760  53.2183  70.7616 0001122  93.0376 267.0745 15.08820362 21646,6917.94,95.439,540.582,539.029,0.0
54760.0,STARLINK-5220,PAYLOAD,2023-04-27 03:38:05,15.08831932,9.35e-05,53.2187,66.8971,106.7245,253.3849,-4.9929e-05,-1.082e-05,0.0,0 STARLINK-5220,1 54760U 22175C   23117.15145123 -.00001082  00000-0 -49929-4 0  9995,2 54760  53.2187  66.8971 0000935 106.7245 253.3849 15.08831932 19610,6917.905,95.438,540.417,539.123,0.0
54760.0,STARLINK-5220,PAYLOAD,2023-04-27 06:48:51,15.08835853,9.8e-05,53.2186,66.3012,105.8783,254.2317,3.4241e-07,-2.82e-06,0.0,0 STARLINK-5220,1 54760U 22175C   23117.28392877 -.00000282  00000-0  34241-6 0  9992,2 54760  53.2186  66.3012 0000980 105.8783 254.2317 15.08835853 21795,6917.893,95.438,540.436,539.08,0.0
54760.0,STARLINK-5220,PAYLOAD,2023-04-28 05:04:14,15.08858335,8.71e-05,53.2173,62.1387,107.7297,252.3791,0.00061497,9.518e-05,0.0,0 STARLINK-5220,1 54760U 22175C   23118.21128118  .00009518  00000-0  61497-3 0  9991,2 54760  53.2173  62.1387 0000871 107.7297 252.3791 15.08858335 19770,6917.824,95.436,540.292,539.087,0.0
54760.0,STARLINK-5220,PAYLOAD,2023-04-29 04:55:01,15.08846898,0.0001106,53.2175,57.6779,95.1104,265.0015,-4.4008e-05,-9.88e-06,0.0,0 STARLINK-5220,1 54760U 22175C   23119.20488233 -.00000988  00000-0 -44008-4 0  9992,2 54760  53.2175  57.6779 0001106  95.1104 265.0015 15.08846898 19923,6917.859,95.437,540.489,538.959,0.0
54760.0,STARLINK-5220,PAYLOAD,2023-04-30 04:45:48,15.08845189,0.0001282,53.2174,53.2159,100.9302,259.1834,8.0571e-05,9.95e-06,0.0,0 STARLINK-5220,1 54760U 22175C   23120.19848090  .00000995  00000-0  80571-4 0  9994,2 54760  53.2174  53.2159 0001282 100.9302 259.1834 15.08845189 22239,6917.865,95.437,540.616,538.843,0.0
54760.0,STARLINK-5220,PAYLOAD,2023-04-30 19:04:17,15.08837965,0.000127,53.2164,50.5424,87.8366,272.2771,7.1342e-05,8.48e-06,0.0,0 STARLINK-5220,1 54760U 22175C   23120.79464519  .00000848  00000-0  71342-4 0  9993,2 54760  53.2164  50.5424 0001270  87.8366 272.2771 15.08837965 20162,6917.887,95.438,540.63,538.873,0.0
54760.0,STARLINK-5220,PAYLOAD,2023-05-01 04:36:36,15.08840533,0.0001192,53.2177,48.7561,98.387,261.7258,0.00010309,1.353e-05,0.0,0 STARLINK-5220,1 54760U 22175C   23121.19208560  .00001353  00000-0  10309-3 0  9997,2 54760  53.2177  48.7561 0001192  98.3870 261.7258 15.08840533 22381,6917.879,95.438,540.568,538.919,0.0
54760.0,STARLINK-5220,PAYLOAD,2023-05-01 23:41:13,15.08844968,0.0001143,53.2182,45.188,98.9076,261.2045,0.00011639,1.565e-05,0.0,0 STARLINK-5220,1 54760U 22175C   23121.98696430  .00001565  00000-0  11639-3 0  9993,2 54760  53.2182  45.1880 0001143  98.9076 261.2045 15.08844968 20341,6917.865,95.437,540.521,538.939,0.0
54760.0,STARLINK-5220,PAYLOAD,2023-05-02 04:27:22,15.08848856,0.0001143,53.2174,44.2951,101.4628,258.6493,0.00025492,3.772e-05,0.0,0 STARLINK-5220,1 54760U 22175C   23122.18568220  .00003772  00000-0  25492-3 0  9995,2 54760  53.2174  44.2951 0001143 101.4628 258.6493 15.08848856 22534,6917.853,95.437,540.509,538.928,0.0
54760.0,STARLINK-5220,PAYLOAD,2023-05-03 04:18:09,15.08851937,0.0001168,53.2175,39.8344,97.9989,262.1136,0.00021788,3.183e-05,0.0,0 STARLINK-5220,1 54760U 22175C   23123.17927756  .00003183  00000-0  21788-3 0  9998,2 54760  53.2175  39.8344 0001168  97.9989 262.1136 15.08851937 20522,6917.844,95.437,540.517,538.901,0.0
54760.0,STARLINK-5220,PAYLOAD,2023-05-03 18:36:38,15.08839067,0.0001212,53.2169,37.1574,95.6331,264.4799,3.1409e-06,-2.38e-06,0.0,0 STARLINK-5220,1 54760U 22175C   23123.77544490 -.00000238  00000-0  31409-5 0  9996,2 54760  53.2169  37.1574 0001212  95.6331 264.4799 15.08839067 20617,6917.883,95.438,540.587,538.91,0.0
54760.0,STARLINK-5220,PAYLOAD,2023-05-04 10:30:29,15.08838686,0.0001251,53.2179,34.1858,88.2274,271.8861,-3.5419e-05,-8.51e-06,0.0,0 STARLINK-5220,1 54760U 22175C   23124.43784533 -.00000851  00000-0 -35419-4 0  9990,2 54760  53.2179  34.1858 0001251  88.2274 271.8861 15.08838686 22875,6917.884,95.438,540.615,538.884,0.0
54760.0,STARLINK-5220,PAYLOAD,2023-05-04 21:38:11,15.08841835,0.0001177,53.2175,32.1048,98.2865,261.8261,0.00010438,1.374e-05,0.0,0 STARLINK-5220,1 54760U 22175C   23124.90152370  .00001374  00000-0  10438-3 0  9992,2 54760  53.2175  32.1048 0001177  98.2865 261.8261 15.08841835 22945,6917.875,95.437,540.554,538.926,0.0
54760.0,STARLINK-5220,PAYLOAD,2023-05-04 23:13:34,15.08848626,0.0001164,53.2173,31.8075,95.1079,265.0046,-9.2535e-07,-3.03e-06,0.0,0 STARLINK-5220,1 54760U 22175C   23124.96776031 -.00000303  00000-0 -92535-6 0  9998,2 54760  53.2173  31.8075 0001164  95.1079 265.0046 15.08848626 20791,6917.854,95.437,540.524,538.914,0.0
54760.0,STARLINK-5220,PAYLOAD,2023-05-05 21:28:59,15.08836597,0.0001233,53.2174,27.6439,97.8266,262.2866,0.00011028,1.468e-05,0.0,0 STARLINK-5220,1 54760U 22175C   23125.89512864  .00001468  00000-0  11028-3 0  9999,2 54760  53.2174  27.6439 0001233  97.8266 262.2866 15.08836597 23092,6917.891,95.438,540.609,538.903,0.0
54760.0,STARLINK-5220,PAYLOAD,2023-05-06 00:39:45,15.08840882,0.0001182,53.2172,27.0516,97.6371,262.4755,0.00011802,1.591e-05,0.0,0 STARLINK-5220,1 54760U 22175C   23126.02760762  .00001591  00000-0  11802-3 0  9994,2 54760  53.2172  27.0516 0001182  97.6371 262.4755 15.08840882 20951,6917.878,95.437,540.56,538.925,0.0
54760.0,STARLINK-5220,PAYLOAD,2023-05-07 02:05:55,15.08852945,9.86e-05,53.2157,22.2942,103.7039,256.4063,0.00040855,6.222e-05,0.0,0 STARLINK-5220,1 54760U 22175C   23127.08744244  .00006222  00000-0  40855-3 0  9994,2 54760  53.2157  22.2942 0000986 103.7039 256.4063 15.08852945 21112,6917.841,95.437,540.388,539.024,0.0
54760.0,STARLINK-5220,PAYLOAD,2023-05-07 21:10:33,15.08832789,0.0001162,53.2155,18.7257,83.7987,276.3138,7.5415e-05,9.12e-06,0.0,0 STARLINK-5220,1 54760U 22175C   23127.88233485  .00000912  00000-0  75415-4 0  9993,2 54760  53.2155  18.7257 0001162  83.7987 276.3138 15.08832789 21236,6917.902,95.438,540.571,538.964,0.0
54760.0,STARLINK-5220,PAYLOAD,2023-05-08 22:36:43,15.08854337,0.0001254,53.2154,13.9674,80.1182,279.9951,0.00085726,0.00013387,0.0,0 STARLINK-5220,1 54760U 22175C   23128.94217518  .00013387  00000-0  85726-3 0  9995,2 54760  53.2154  13.9674 0001254  80.1182 279.9951 15.08854337 23557,6917.837,95.437,540.569,538.834,0.0
54760.0,STARLINK-5220,PAYLOAD,2023-05-09 22:27:30,15.08849784,0.0001151,53.2149,9.5072,96.4702,263.6422,0.00031252,4.691e-05,0.0,0 STARLINK-5220,1 54760U 22175C   23129.93577035  .00004691  00000-0  31252-3 0  9991,2 54760  53.2149   9.5072 0001151  96.4702 263.6422 15.08849784 23708,6917.85,95.437,540.512,538.919,0.0
54760.0,STARLINK-5220,PAYLOAD,2023-05-10 15:56:45,15.08841972,0.0001309,53.2142,6.2364,87.7306,272.3836,1.385e-05,-6.7e-07,0.0,0 STARLINK-5220,1 54760U 22175C   23130.66441267 -.00000067  00000-0  13850-4 0  9999,2 54760  53.2142   6.2364 0001309  87.7306 272.3836 15.08841972 21656,6917.874,95.437,540.645,538.834,0.0
54760.0,STARLINK-5220,PAYLOAD,2023-05-10 19:07:31,15.0884453,0.0001061,53.2148,5.6416,94.4259,265.6855,7.3397e-05,8.81e-06,0.0,0 STARLINK-5220,1 54760U 22175C   23130.79689143  .00000881  00000-0  73397-4 0  9995,2 54760  53.2148   5.6416 0001061  94.4259 265.6855 15.08844530 23831,6917.867,95.437,540.466,538.998,0.0
54760.0,STARLINK-5220,PAYLOAD,2023-05-10 22:18:17,15.08852055,0.0001139,53.2158,5.0438,90.893,269.2193,0.00018646,2.682e-05,0.0,0 STARLINK-5220,1 54760U 22175C   23130.92936991  .00002682  00000-0  18646-3 0  9992,2 54760  53.2158   5.0438 0001139  90.8930 269.2193 15.08852055 23850,6917.844,95.437,540.496,538.921,0.0
